{"type": "FeatureCollection", "features": [{"type": "Feature", "properties": {"norad_id": 24946, "name": "IRIDIUM 33", "group": "iridium-33-debris", "lat": -77.89541610057395, "lon": 48.50217383767116, "alt_km": 783.5204989894273, "timestamp": "2025-12-18T21:31:51.388918+00:00", "meta": {"OBJECT_NAME": "IRIDIUM 33", "OBJECT_ID": "1997-051C", "EPOCH": "2025-12-18T06:50:06.168768", "MEAN_MOTION": 14.35041379, "ECCENTRICITY": 0.00076997, "INCLINATION": 86.3868, "RA_OF_ASC_NODE": 65.8942, "ARG_OF_PERICENTER": 181.3776, "MEAN_ANOMALY": 178.74, "EPHEMERIS_TYPE": 0, "CLASSIFICATION_TYPE": "U", "NORAD_CAT_ID": 24946, "ELEMENT_SET_NO": 999, "REV_AT_EPOCH": 47914, "BSTAR": 9.6754655e-05, "MEAN_MOTION_DOT": 2.95e-06, "MEAN_MOTION_DDOT": 0}, "tle": {"line1": "1 24946U 97051C   25352.28479362  .00000295  00000+0  96755-4 0  9996", "line2": "2 24946  86.3868  65.8942 0007699 181.3776 178.7400 14.35041379479143"}}, "geometry": {"type": "Point", "coordinates": [48.50217383767116, -77.89541610057395]}}, {"type": "Feature", "properties": {"norad_id": 33773, "name": "IRIDIUM 33 DEB", "group": "iridium-33-debris", "lat": 60.148178999311355, "lon": 64.27726768923344, "alt_km": 738.4692758093261, "timestamp": "2025-12-18T21:31:51.388962+00:00", "meta": {"OBJECT_NAME": "IRIDIUM 33 DEB", "OBJECT_ID": "1997-051L", "EPOCH": "2025-12-18T04:36:45.675648", "MEAN_MOTION": 14.43268549, "ECCENTRICITY": 0.00129399, "INCLINATION": 86.4005, "RA_OF_ASC_NODE": 58.279, "ARG_OF_PERICENTER": 130.4918, "MEAN_ANOMALY": 229.7413, "EPHEMERIS_TYPE": 0, "CLASSIFICATION_TYPE": "U", "NORAD_CAT_ID": 33773, "ELEMENT_SET_NO": 999, "REV_AT_EPOCH": 88426, "BSTAR": 0.00023660317, "MEAN_MOTION_DOT": 8.17e-06, "MEAN_MOTION_DDOT": 0}, "tle": {"line1": "1 33773U 97051L   25352.19219532  .00000817  00000+0  23660-3 0  9999", "line2": "2 33773  86.4005  58.2790 0012939 130.4918 229.7413 14.43268549884261"}}, "geometry": {"type": "Point", "coordinates": [64.27726768923344, 60.148178999311355]}}, {"type": "Feature", "properties": {"norad_id": 33775, "name": "IRIDIUM 33 DEB", "group": "iridium-33-debris", "lat": 75.15559489434503, "lon": -146.9596648845548, "alt_km": 737.5256828047559, "timestamp": "2025-12-18T21:31:51.388979+00:00", "meta": {"OBJECT_NAME": "IRIDIUM 33 DEB", "OBJECT_ID": "1997-051N", "EPOCH": "2025-12-18T06:22:37.580736", "MEAN_MOTION": 14.41480224, "ECCENTRICITY": 0.00148381, "INCLINATION": 86.3632, "RA_OF_ASC_NODE": 47.1944, "ARG_OF_PERICENTER": 137.9325, "MEAN_ANOMALY": 292.0202, "EPHEMERIS_TYPE": 0, "CLASSIFICATION_TYPE": "U", "NORAD_CAT_ID": 33775, "ELEMENT_SET_NO": 999, "REV_AT_EPOCH": 88220, "BSTAR": 0.00025383462, "MEAN_MOTION_DOT": 8.44e-06, "MEAN_MOTION_DDOT": 0}, "tle": {"line1": "1 33775U 97051N   25352.26571274  .00000844  00000+0  25383-3 0  9997", "line2": "2 33775  86.3632  47.1944 0014838 137.9325 292.0202 14.41480224882205"}}, "geometry": {"type": "Point", "coordinates": [-146.9596648845548, 75.15559489434503]}}, {"type": "Feature", "properties": {"norad_id": 33776, "name": "IRIDIUM 33 DEB", "group": "iridium-33-debris", "lat": -81.89775038373756, "lon": -75.59213397481993, "alt_km": 772.164161859394, "timestamp": "2025-12-18T21:31:51.388993+00:00", "meta": {"OBJECT_NAME": "IRIDIUM 33 DEB", "OBJECT_ID": "1997-051P", "EPOCH": "2025-12-18T07:14:00.599712", "MEAN_MOTION": 14.38244956, "ECCENTRICITY": 0.00149937, "INCLINATION": 86.4036, "RA_OF_ASC_NODE": 78.4405, "ARG_OF_PERICENTER": 172.3742, "MEAN_ANOMALY": 247.646, "EPHEMERIS_TYPE": 0, "CLASSIFICATION_TYPE": "U", "NORAD_CAT_ID": 33776, "ELEMENT_SET_NO": 999, "REV_AT_EPOCH": 88162, "BSTAR": 0.00022721058, "MEAN_MOTION_DOT": 7.11e-06, "MEAN_MOTION_DDOT": 0}, "tle": {"line1": "1 33776U 97051P   25352.30139583  .00000711  00000+0  22721-3 0  9992", "line2": "2 33776  86.4036  78.4405 0014993 172.3742 247.6460 14.38244956881625"}}, "geometry": {"type": "Point", "coordinates": [-75.59213397481993, -81.89775038373756]}}, {"type": "Feature", "properties": {"norad_id": 33777, "name": "IRIDIUM 33 DEB", "group": "iridium-33-debris", "lat": 74.81775225949139, "lon": 46.02356621065581, "alt_km": 703.5084812996247, "timestamp": "2025-12-18T21:31:51.389007+00:00", "meta": {"OBJECT_NAME": "IRIDIUM 33 DEB", "OBJECT_ID": "1997-051Q", "EPOCH": "2025-12-18T04:41:17.174688", "MEAN_MOTION": 14.55652689, "ECCENTRICITY": 0.00055596, "INCLINATION": 86.3781, "RA_OF_ASC_NODE": 32.8305, "ARG_OF_PERICENTER": 224.681, "MEAN_ANOMALY": 135.395, "EPHEMERIS_TYPE": 0, "CLASSIFICATION_TYPE": "U", "NORAD_CAT_ID": 33777, "ELEMENT_SET_NO": 999, "REV_AT_EPOCH": 88613, "BSTAR": 0.00065915715, "MEAN_MOTION_DOT": 2.898e-05, "MEAN_MOTION_DDOT": 0}, "tle": {"line1": "1 33777U 97051Q   25352.19533767  .00002898  00000+0  65916-3 0  9993", "line2": "2 33777  86.3781  32.8305 0005559 224.6810 135.3950 14.55652689886133"}}, "geometry": {"type": "Point", "coordinates": [46.02356621065581, 74.81775225949139]}}, {"type": "Feature", "properties": {"norad_id": 33850, "name": "IRIDIUM 33 DEB", "group": "iridium-33-debris", "lat": 79.08475688022463, "lon": -171.84561361013917, "alt_km": 737.3317045189278, "timestamp": "2025-12-18T21:31:51.389019+00:00", "meta": {"OBJECT_NAME": "IRIDIUM 33 DEB", "OBJECT_ID": "1997-051T", "EPOCH": "2025-12-18T04:44:45.148992", "MEAN_MOTION": 14.42158096, "ECCENTRICITY": 0.00127838, "INCLINATION": 86.3413, "RA_OF_ASC_NODE": 27.8327, "ARG_OF_PERICENTER": 144.545, "MEAN_ANOMALY": 287.1244, "EPHEMERIS_TYPE": 0, "CLASSIFICATION_TYPE": "U", "NORAD_CAT_ID": 33850, "ELEMENT_SET_NO": 999, "REV_AT_EPOCH": 88231, "BSTAR": 0.00027234125, "MEAN_MOTION_DOT": 9.16e-06, "MEAN_MOTION_DDOT": 0}, "tle": {"line1": "1 33850U 97051T   25352.19774478  .00000916  00000+0  27234-3 0  9991", "line2": "2 33850  86.3413  27.8327 0012783 144.5450 287.1244 14.42158096882319"}}, "geometry": {"type": "Point", "coordinates": [-171.84561361013917, 79.08475688022463]}}, {"type": "Feature", "properties": {"norad_id": 33853, "name": "IRIDIUM 33 DEB", "group": "iridium-33-debris", "lat": -71.04706733039671, "lon": 178.8679316353286, "alt_km": 779.2751053345637, "timestamp": "2025-12-18T21:31:51.389032+00:00", "meta": {"OBJECT_NAME": "IRIDIUM 33 DEB", "OBJECT_ID": "1997-051W", "EPOCH": "2025-12-17T23:59:57.054624", "MEAN_MOTION": 13.9909182, "ECCENTRICITY": 0.0207121, "INCLINATION": 86, "RA_OF_ASC_NODE": 347.5046, "ARG_OF_PERICENTER": 219.5564, "MEAN_ANOMALY": 194.5399, "EPHEMERIS_TYPE": 0, "CLASSIFICATION_TYPE": "U", "NORAD_CAT_ID": 33853, "ELEMENT_SET_NO": 999, "REV_AT_EPOCH": 85419, "BSTAR": 0.0013818561, "MEAN_MOTION_DOT": 2.42e-05, "MEAN_MOTION_DDOT": 0}, "tle": {"line1": "1 33853U 97051W   25351.99996591  .00002420  00000+0  13819-2 0  9998", "line2": "2 33853  86.0000 347.5046 0207121 219.5564 194.5399 13.99091820854191"}}, "geometry": {"type": "Point", "coordinates": [178.8679316353286, -71.04706733039671]}}, {"type": "Feature", "properties": {"norad_id": 33860, "name": "IRIDIUM 33 DEB", "group": "iridium-33-debris", "lat": -53.0628043582466, "lon": -150.66080060922815, "alt_km": 677.3560694978141, "timestamp": "2025-12-18T21:31:51.389052+00:00", "meta": {"OBJECT_NAME": "IRIDIUM 33 DEB", "OBJECT_ID": "1997-051AD", "EPOCH": "2025-12-17T20:44:12.939360", "MEAN_MOTION": 14.67430284, "ECCENTRICITY": 0.00068026, "INCLINATION": 86.383, "RA_OF_ASC_NODE": 24.9702, "ARG_OF_PERICENTER": 338.9928, "MEAN_ANOMALY": 200.2334, "EPHEMERIS_TYPE": 0, "CLASSIFICATION_TYPE": "U", "NORAD_CAT_ID": 33860, "ELEMENT_SET_NO": 999, "REV_AT_EPOCH": 88797, "BSTAR": 0.00087666322, "MEAN_MOTION_DOT": 4.982e-05, "MEAN_MOTION_DDOT": 0}, "tle": {"line1": "1 33860U 97051AD  25351.86403865  .00004982  00000+0  87666-3 0  9996", "line2": "2 33860  86.3830  24.9702 0006802 338.9928 200.2334 14.67430284887974"}}, "geometry": {"type": "Point", "coordinates": [-150.66080060922815, -53.0628043582466]}}, {"type": "Feature", "properties": {"norad_id": 33862, "name": "IRIDIUM 33 DEB", "group": "iridium-33-debris", "lat": -45.16082006913094, "lon": 31.194562006886898, "alt_km": 671.4593894035925, "timestamp": "2025-12-18T21:31:51.389065+00:00", "meta": {"OBJECT_NAME": "IRIDIUM 33 DEB", "OBJECT_ID": "1997-051AF", "EPOCH": "2025-12-18T04:01:58.650816", "MEAN_MOTION": 14.6956049, "ECCENTRICITY": 0.0052929, "INCLINATION": 86.4088, "RA_OF_ASC_NODE": 35.137, "ARG_OF_PERICENTER": 50.991, "MEAN_ANOMALY": 9.7866, "EPHEMERIS_TYPE": 0, "CLASSIFICATION_TYPE": "U", "NORAD_CAT_ID": 33862, "ELEMENT_SET_NO": 999, "REV_AT_EPOCH": 88903, "BSTAR": 0.0010554375, "MEAN_MOTION_DOT": 6.426e-05, "MEAN_MOTION_DDOT": 0}, "tle": {"line1": "1 33862U 97051AF  25352.16803994  .00006426  00000+0  10554-2 0  9995", "line2": "2 33862  86.4088  35.1370 0052929  50.9910   9.7866 14.69560490889036"}}, "geometry": {"type": "Point", "coordinates": [31.194562006886898, -45.16082006913094]}}, {"type": "Feature", "properties": {"norad_id": 33866, "name": "IRIDIUM 33 DEB", "group": "iridium-33-debris", "lat": 58.77876980539456, "lon": -95.69774898873892, "alt_km": 724.666526831058, "timestamp": "2025-12-18T21:31:51.389076+00:00", "meta": {"OBJECT_NAME": "IRIDIUM 33 DEB", "OBJECT_ID": "1997-051AK", "EPOCH": "2025-12-18T05:56:25.193184", "MEAN_MOTION": 14.25291707, "ECCENTRICITY": 0.01148411, "INCLINATION": 86.3, "RA_OF_ASC_NODE": 90.7055, "ARG_OF_PERICENTER": 143.9211, "MEAN_ANOMALY": 246.4212, "EPHEMERIS_TYPE": 0, "CLASSIFICATION_TYPE": "U", "NORAD_CAT_ID": 33866, "ELEMENT_SET_NO": 999, "REV_AT_EPOCH": 86889, "BSTAR": 0.00046890832, "MEAN_MOTION_DOT": 1.202e-05, "MEAN_MOTION_DDOT": 0}, "tle": {"line1": "1 33866U 97051AK  25352.24751381  .00001202  00000+0  46891-3 0  9991", "line2": "2 33866  86.3000  90.7055 0114841 143.9211 246.4212 14.25291707868899"}}, "geometry": {"type": "Point", "coordinates": [-95.69774898873892, 58.77876980539456]}}]}